NORAD_CAT_ID,OBJECT_NAME,OBJECT_TYPE,EPOCH,MEAN_MOTION,ECCENTRICITY,INCLINATION,RA_OF_ASC_NODE,ARG_OF_PERICENTER,MEAN_ANOMALY,BSTAR,MEAN_MOTION_DOT,MEAN_MOTION_DDOT,TLE_LINE0,TLE_LINE1,TLE_LINE2,SEMIMAJOR_AXIS,PERIOD,APOGEE,PERIGEE,DECAYED
52263.0,STARLINK-3786,PAYLOAD,2022-10-28 18:10:16,15.08853964,0.0001759,53.2168,221.5226,45.4086,314.7049,0.00013717,1.896e-05,0.0,0 STARLINK-3786,1 52263U 22041C   22301.75713858  .00001896  00000-0  13717-3 0  9995,2 52263  53.2168 221.5226 0001759  45.4086 314.7049 15.08853964 28988,6917.8380000000025,95.437,540.92,538.486,0.0
52263.0,STARLINK-3786,PAYLOAD,2022-10-29 03:42:35,15.08848221,0.0002304,53.217,219.7336,32.5662,327.5472,3.7275e-05,3.05e-06,0.0,0 STARLINK-3786,1 52263U 22041C   22302.15458231  .00000305  00000-0  37275-4 0  9991,2 52263  53.2170 219.7336 0002304  32.5662 327.5472 15.08848221 30251,6917.855,95.437,541.314,538.126,0.0
52263.0,STARLINK-3786,PAYLOAD,2022-10-30 01:57:58,15.08863505,0.0002304,53.2181,215.5712,37.268,322.8472,-0.00041681,-6.92e-05,0.0,0 STARLINK-3786,1 52263U 22041C   22303.08193176 -.00006920  00000-0 -41681-3 0  9994,2 52263  53.2181 215.5712 0002304  37.2680 322.8472 15.08863505 29187,6917.809,95.436,541.2669999999998,538.08,0.0
52263.0,STARLINK-3786,PAYLOAD,2022-10-30 17:51:51,15.08839602,0.0002624,53.218,212.6058,42.7911,317.3285,-1.977e-05,-6.03e-06,0.0,0 STARLINK-3786,1 52263U 22041C   22303.74434555 -.00000603  00000-0 -19770-4 0  9993,2 52263  53.2180 212.6058 0002624  42.7911 317.3285 15.08839602 29283,6917.882,95.438,541.562,537.931,0.0
52263.0,STARLINK-3786,PAYLOAD,2022-10-31 04:59:34,15.08831083,0.0002063,53.2178,210.5198,36.4423,323.6709,4.698800000000001e-05,4.6e-06,0.0,0 STARLINK-3786,1 52263U 22041C   22304.20803246  .00000460  00000-0  46988-4 0  9992,2 52263  53.2178 210.5198 0002063  36.4423 323.6709 15.08831083 29351,6917.908,95.438,541.2,538.345,0.0
52263.0,STARLINK-3786,PAYLOAD,2022-11-01 03:14:57,15.08842392,0.0001899999999999,53.2169,206.356,44.6973,315.4172,0.00012787,1.748e-05,0.0,0 STARLINK-3786,1 52263U 22041C   22305.13538748  .00001748  00000-0  12787-3 0  9996,2 52263  53.2169 206.3560 0001900  44.6973 315.4172 15.08842392 30706,6917.873000000001,95.437,541.052,538.424,0.0
52263.0,STARLINK-3786,PAYLOAD,2022-11-01 11:11:53,15.088394,0.000195,53.2169,204.8692,44.2052,315.9095,8.243200000000001e-05,1.024e-05,0.0,0 STARLINK-3786,1 52263U 22041C   22305.46659017  .00001024  00000-0  82432-4 0  9997,2 52263  53.2169 204.8692 0001950  44.2052 315.9095 15.08839400 29549,6917.882,95.438,541.096,538.398,0.0
52263.0,STARLINK-3786,PAYLOAD,2022-11-01 17:33:26,15.08838036,0.0001950999999999,53.2168,203.6798,43.793,316.3217,0.00019735,2.854e-05,0.0,0 STARLINK-3786,1 52263U 22041C   22305.73155218  .00002854  00000-0  19735-3 0  9998,2 52263  53.2168 203.6798 0001951  43.7930 316.3217 15.08838036 30796,6917.886,95.438,541.101,538.4019999999998,0.0
52263.0,STARLINK-3786,PAYLOAD,2022-11-02 03:05:45,15.08836408,0.0002005999999999,53.2174,201.8969,38.9958,321.1179,0.00010757,1.424e-05,0.0,0 STARLINK-3786,1 52263U 22041C   22306.12899387  .00001424  00000-0  10757-3 0  9991,2 52263  53.2174 201.8969 0002006  38.9958 321.1179 15.08836408 29645,6917.891,95.438,541.144,538.369,0.0
52263.0,STARLINK-3786,PAYLOAD,2022-11-03 02:56:32,15.08839247,0.0001754,53.2176,197.436,41.6502,318.4623,8.1795e-06,-1.58e-06,0.0,0 STARLINK-3786,1 52263U 22041C   22307.12259410 -.00000158  00000-0  81795-5 0  9995,2 52263  53.2176 197.4360 0001754  41.6502 318.4623 15.08839247 31007,6917.8830000000025,95.438,540.961,538.534,0.0
52263.0,STARLINK-3786,PAYLOAD,2022-11-03 09:18:04,15.08838755,0.0001651,53.217,196.247,39.8514,320.2599,6.0421e-05,6.74e-06,0.0,0 STARLINK-3786,1 52263U 22041C   22307.38755309  .00000674  00000-0  60421-4 0  9995,2 52263  53.2170 196.2470 0001651  39.8514 320.2599 15.08838755 29832,6917.884,95.438,540.891,538.607,0.0
52263.0,STARLINK-3786,PAYLOAD,2022-11-03 17:14:59,15.08843383,0.000194,53.2179,194.76,32.6871,327.4241,0.00013474,1.857e-05,0.0,0 STARLINK-3786,1 52263U 22041C   22307.71874895  .00001857  00000-0  13474-3 0  9993,2 52263  53.2179 194.7600 0001940  32.6871 327.4241 15.08843383 29888,6917.87,95.437,541.077,538.393,0.0
52263.0,STARLINK-3786,PAYLOAD,2022-11-04 02:47:17,15.08858269,0.0002039,53.2168,192.9759,40.0133,320.1009,0.00030356,4.549e-05,0.0,0 STARLINK-3786,1 52263U 22041C   22308.11618021  .00004549  00000-0  30356-3 0  9994,2 52263  53.2168 192.9759 0002039  40.0133 320.1009 15.08858269 31159,6917.825,95.436,541.1,538.279,0.0
52263.0,STARLINK-3786,PAYLOAD,2022-11-04 17:05:46,15.08845205,0.000199,53.2172,190.2992,49.4951,310.6215,0.00015333,2.153e-05,0.0,0 STARLINK-3786,1 52263U 22041C   22308.71234301  .00002153  00000-0  15333-3 0  9992,2 52263  53.2172 190.2992 0001990  49.4951 310.6215 15.08845205 31249,6917.864000000001,95.437,541.106,538.3530000000002,0.0
52263.0,STARLINK-3786,PAYLOAD,2022-11-05 08:59:38,15.08831275,0.0001905,53.2174,187.3256,47.4659,312.6493,1.4792e-05,-5.3e-07,0.0,0 STARLINK-3786,1 52263U 22041C   22309.37475269 -.00000053  00000-0  14792-4 0  9992,2 52263  53.2174 187.3256 0001905  47.4659 312.6493 15.08831275 30139,6917.906999999997,95.438,541.09,538.4540000000002,0.0
52263.0,STARLINK-3786,PAYLOAD,2022-11-06 00:53:32,15.08819839,0.0002062,53.2173,184.3517,43.3985,316.7169,-0.00027506,-4.661e-05,0.0,0 STARLINK-3786,1 52263U 22041C   22310.03717621 -.00004661  00000-0 -27506-3 0  9994,2 52263  53.2173 184.3517 0002062  43.3985 316.7169 15.08819839 31449,6917.941999999999,95.439,541.2330000000002,538.381,0.0
52263.0,STARLINK-3786,PAYLOAD,2022-11-06 08:50:27,15.08818263,0.0002004,53.2173,182.864,44.2337,315.8815,-0.00016835,-2.965e-05,0.0,0 STARLINK-3786,1 52263U 22041C   22310.36837786 -.00002965  00000-0 -16835-3 0  9993,2 52263  53.2173 182.8640 0002004  44.2337 315.8815 15.08818263 30285,6917.946999999999,95.439,541.198,538.425,0.0
52263.0,STARLINK-3786,PAYLOAD,2022-11-07 00:44:19,15.08825005,0.0002044,53.2173,179.8917,46.3367,313.7794,-8.3325e-06,-4.21e-06,0.0,0 STARLINK-3786,1 52263U 22041C   22311.03077760 -.00000421  00000-0 -83325-5 0  9991,2 52263  53.2173 179.8917 0002044  46.3367 313.7794 15.08825005 31598,6917.926,95.439,541.205,538.377,0.0
52263.0,STARLINK-3786,PAYLOAD,2022-11-07 18:13:33,15.08825247,0.0002125,53.2174,176.62099999999995,46.9852,313.1318,0.00032913,4.952e-05,0.0,0 STARLINK-3786,1 52263U 22041C   22311.75941982  .00004952  00000-0  32913-3 0  9992,2 52263  53.2174 176.6210 0002125  46.9852 313.1318 15.08825247 30497,6917.925,95.438,541.261,538.32,0.0
52263.0,STARLINK-3786,PAYLOAD,2022-11-08 00:35:06,15.08832624,0.0002162,53.2173,175.4318,46.8442,313.2731,0.00033696,5.078e-05,0.0,0 STARLINK-3786,1 52263U 22041C   22312.02437997  .00005078  00000-0  33696-3 0  9998,2 52263  53.2173 175.4318 0002162  46.8442 313.2731 15.08832624 31743,6917.903,95.438,541.264,538.2719999999998,0.0
52263.0,STARLINK-3786,PAYLOAD,2022-11-08 14:53:33,15.08865141,0.0002209,53.2164,172.7554,49.5661,310.5524,0.0006137,9.499e-05,0.0,0 STARLINK-3786,1 52263U 22041C   22312.62052725  .00009499  00000-0  61370-3 0  9997,2 52263  53.2164 172.7554 0002209  49.5661 310.5524 15.08865141 31830,6917.804,95.436,541.197,538.14,0.0
52263.0,STARLINK-3786,PAYLOAD,2022-11-09 21:05:52,15.08854195,0.0002482,53.2185,167.1071,61.1316,298.9925,-5.136100000000001e-05,-1.106e-05,0.0,0 STARLINK-3786,1 52263U 22041C   22313.87907979 -.00001106  00000-0 -51361-4 0  9994,2 52263  53.2185 167.1071 0002482  61.1316 298.9925 15.08854195 30813,6917.837,95.437,541.419,537.985,0.0
52263.0,STARLINK-3786,PAYLOAD,2022-11-10 01:52:02,15.08840744,0.0001952,53.2165,166.2126,47.92,312.1958,-0.00018506,-3.232e-05,0.0,0 STARLINK-3786,1 52263U 22041C   22314.07780606 -.00003232  00000-0 -18506-3 0  9998,2 52263  53.2165 166.2126 0001952  47.9200 312.1958 15.08840744 32055,6917.878000000002,95.438,541.0930000000002,538.393,0.0
52263.0,STARLINK-3786,PAYLOAD,2022-11-10 19:21:16,15.08843823,0.0001921,53.2172,162.9423,47.6729,312.4426,-3.8253e-05,-8.97e-06,0.0,0 STARLINK-3786,1 52263U 22041C   22314.80644376 -.00000897  00000-0 -38253-4 0  9998,2 52263  53.2172 162.9423 0001921  47.6729 312.4426 15.08843823 30956,6917.869000000002,95.437,541.063,538.405,0.0
52263.0,STARLINK-3786,PAYLOAD,2022-11-11 01:42:50,15.08831731,0.0002124,53.2174,161.7531,45.4931,314.6234,-0.00013683,-2.465e-05,0.0,0 STARLINK-3786,1 52263U 22041C   22315.07141465 -.00002465  00000-0 -13683-3 0  9991,2 52263  53.2174 161.7531 0002124  45.4931 314.6234 15.08831731 32208,6917.906,95.438,541.24,538.3009999999998,0.0
52263.0,STARLINK-3786,PAYLOAD,2022-11-11 12:50:32,15.0882815,0.000215,53.2174,159.6718,45.5323,314.5844,-7.601e-05,-1.497e-05,0.0,0 STARLINK-3786,1 52263U 22041C   22315.53509764 -.00001497  00000-0 -76010-4 0  9990,2 52263  53.2174 159.6718 0002150  45.5323 314.5844 15.08828150 31066,6917.917,95.438,541.269,538.294,0.0
52263.0,STARLINK-3786,PAYLOAD,2022-11-11 20:47:28,15.08824322,0.0001994,53.2173,158.1849,47.2437,312.8722,2.9604e-05,1.83e-06,0.0,0 STARLINK-3786,1 52263U 22041C   22315.86629852  .00000183  00000-0  29604-4 0  9993,2 52263  53.2173 158.1849 0001994  47.2437 312.8722 15.08824322 31113,6917.928000000001,95.439,541.173,538.414,0.0
52263.0,STARLINK-3786,PAYLOAD,2022-11-12 12:41:19,15.0883315,0.0002031,53.2173,155.2111,47.8585,312.2579,8.804e-05,1.113e-05,0.0,0 STARLINK-3786,1 52263U 22041C   22316.52869665  .00001113  00000-0  88040-4 0  9998,2 52263  53.2173 155.2111 0002031  47.8585 312.2579 15.08833150 32424,6917.901,95.438,541.1709999999998,538.361,0.0
52263.0,STARLINK-3786,PAYLOAD,2022-11-12 20:38:14,15.08838205,0.0002054,53.2173,153.7244,47.5918,312.5248,7.1456e-05,8.49e-06,0.0,0 STARLINK-3786,1 52263U 22041C   22316.85989558  .00000849  00000-0  71456-4 0  9996,2 52263  53.2173 153.7244 0002054  47.5918 312.5248 15.08838205 31269,6917.886,95.438,541.172,538.33,0.0
